{
  "type": "FeatureCollection",
  "features": [
    {
      "type": "Feature",
      "properties": {
        "norad_id": 30750,
        "name": "FENGYUN 1C DEB",
        "group": "fengyun-1c-debris",
        "lat": -28.197804828703916,
        "lon": 70.20947844623666,
        "alt_km": 815.1052326971603,
        "timestamp": "2025-12-16T17:51:11.209977+00:00",
        "meta_object_name": "FENGYUN 1C DEB",
        "meta_object_id": "1999-025ATL",
        "meta_epoch": "2025-12-15T03:27:56.403648",
        "meta_mean_motion": 14.2862942,
        "meta_eccentricity": 0.00403731,
        "meta_inclination": 98.9193,
        "meta_ra_of_asc_node": 63.7451,
        "meta_arg_of_pericenter": 93.1614,
        "meta_mean_anomaly": 297.1841,
        "meta_ephemeris_type": 0,
        "meta_classification_type": "U",
        "meta_norad_cat_id": 30750,
        "meta_element_set_no": 999,
        "meta_rev_at_epoch": 96816,
        "meta_bstar": 0.0012666476,
        "meta_mean_motion_dot": 3.164e-05,
        "meta_mean_motion_ddot": 0,
        "tle_line1": "1 30750U 99025ATL 25349.14440282  .00003164  00000+0  12666-2 0  9994",
        "tle_line2": "2 30750  98.9193  63.7451 0040373  93.1614 297.1841 14.28629420968163"
      },
      "geometry": {
        "type": "Point",
        "coordinates": [
          70.20947844623666,
          -28.197804828703916
        ]
      }
    },
    {
      "type": "Feature",
      "properties": {
        "norad_id": 30751,
        "name": "FENGYUN 1C DEB",
        "group": "fengyun-1c-debris",
        "lat": -51.0574788475662,
        "lon": -141.20500335523715,
        "alt_km": 879.8005711679298,
        "timestamp": "2025-12-16T17:51:11.209988+00:00",
        "meta_object_name": "FENGYUN 1C DEB",
        "meta_object_id": "1999-025ATM",
        "meta_epoch": "2025-12-15T17:35:41.046144",
        "meta_mean_motion": 14.15219355,
        "meta_eccentricity": 0.00521078,
        "meta_inclination": 98.8553,
        "meta_ra_of_asc_node": 48.9144,
        "meta_arg_of_pericenter": 88.0826,
        "meta_mean_anomaly": 36.662,
        "meta_ephemeris_type": 0,
        "meta_classification_type": "U",
        "meta_norad_cat_id": 30751,
        "meta_element_set_no": 999,
        "meta_rev_at_epoch": 96318,
        "meta_bstar": 0.00098800751,
        "meta_mean_motion_dot": 1.902e-05,
        "meta_mean_motion_ddot": 0,
        "tle_line1": "1 30751U 99025ATM 25349.73311396  .00001902  00000+0  98801-3 0  9997",
        "tle_line2": "2 30751  98.8553  48.9144 0052107  88.0826  36.6620 14.15219355963189"
      },
      "geometry": {
        "type": "Point",
        "coordinates": [
          -141.20500335523715,
          -51.0574788475662
        ]
      }
    },
    {
      "type": "Feature",
      "properties": {
        "norad_id": 30753,
        "name": "FENGYUN 1C DEB",
        "group": "fengyun-1c-debris",
        "lat": -4.2129752897303865,
        "lon": 29.922888394985954,
        "alt_km": 814.6580401477759,
        "timestamp": "2025-12-16T17:51:11.210000+00:00",
        "meta_object_name": "FENGYUN 1C DEB",
        "meta_object_id": "1999-025ATP",
        "meta_epoch": "2025-12-15T12:58:31.349568",
        "meta_mean_motion": 14.1265701,
        "meta_eccentricity": 0.0055265,
        "meta_inclination": 98.8075,
        "meta_ra_of_asc_node": 28.0856,
        "meta_arg_of_pericenter": 347.02,
        "meta_mean_anomaly": 12.9546,
        "meta_ephemeris_type": 0,
        "meta_classification_type": "U",
        "meta_norad_cat_id": 30753,
        "meta_element_set_no": 999,
        "meta_rev_at_epoch": 96391,
        "meta_bstar": 0.00099758418,
        "meta_mean_motion_dot": 1.832e-05,
        "meta_mean_motion_ddot": 0,
        "tle_line1": "1 30753U 99025ATP 25349.54064062  .00001832  00000+0  99758-3 0  9997",
        "tle_line2": "2 30753  98.8075  28.0856 0055265 347.0200  12.9546 14.12657010963917"
      },
      "geometry": {
        "type": "Point",
        "coordinates": [
          29.922888394985954,
          -4.2129752897303865
        ]
      }
    },
    {
      "type": "Feature",
      "properties": {
        "norad_id": 30755,
        "name": "FENGYUN 1C DEB",
        "group": "fengyun-1c-debris",
        "lat": -40.57029677794912,
        "lon": 158.05576831830504,
        "alt_km": 661.0655571118259,
        "timestamp": "2025-12-16T17:51:11.210011+00:00",
        "meta_object_name": "FENGYUN 1C DEB",
        "meta_object_id": "1999-025ATR",
        "meta_epoch": "2025-12-15T22:41:22.731072",
        "meta_mean_motion": 14.44969806,
        "meta_eccentricity": 0.01507945,
        "meta_inclination": 98.2584,
        "meta_ra_of_asc_node": 344.4226,
        "meta_arg_of_pericenter": 259.2823,
        "meta_mean_anomaly": 131.5401,
        "meta_ephemeris_type": 0,
        "meta_classification_type": "U",
        "meta_norad_cat_id": 30755,
        "meta_element_set_no": 999,
        "meta_rev_at_epoch": 98491,
        "meta_bstar": 0.00045900287,
        "meta_mean_motion_dot": 1.79e-05,
        "meta_mean_motion_ddot": 0,
        "tle_line1": "1 30755U 99025ATR 25349.94540198  .00001790  00000+0  45900-3 0  9995",
        "tle_line2": "2 30755  98.2584 344.4226 0150794 259.2823 131.5401 14.44969806984917"
      },
      "geometry": {
        "type": "Point",
        "coordinates": [
          158.05576831830504,
          -40.57029677794912
        ]
      }
    },
    {
      "type": "Feature",
      "properties": {
        "norad_id": 30756,
        "name": "FENGYUN 1C DEB",
        "group": "fengyun-1c-debris",
        "lat": 9.933317700175923,
        "lon": -120.20897872510493,
        "alt_km": 868.645861759368,
        "timestamp": "2025-12-16T17:51:11.210021+00:00",
        "meta_object_name": "FENGYUN 1C DEB",
        "meta_object_id": "1999-025ATS",
        "meta_epoch": "2025-12-15T16:22:46.474176",
        "meta_mean_motion": 14.18295099,
        "meta_eccentricity": 0.00712808,
        "meta_inclination": 98.9909,
        "meta_ra_of_asc_node": 57.1272,
        "meta_arg_of_pericenter": 307.6282,
        "meta_mean_anomaly": 206.4476,
        "meta_ephemeris_type": 0,
        "meta_classification_type": "U",
        "meta_norad_cat_id": 30756,
        "meta_element_set_no": 999,
        "meta_rev_at_epoch": 96446,
        "meta_bstar": 0.0010456816,
        "meta_mean_motion_dot": 2.162e-05,
        "meta_mean_motion_ddot": 0,
        "tle_line1": "1 30756U 99025ATS 25349.68248234  .00002162  00000+0  10457-2 0  9995",
        "tle_line2": "2 30756  98.9909  57.1272 0071280 307.6282 206.4476 14.18295099964463"
      },
      "geometry": {
        "type": "Point",
        "coordinates": [
          -120.20897872510493,
          9.933317700175923
        ]
      }
    },
    {
      "type": "Feature",
      "properties": {
        "norad_id": 30758,
        "name": "FENGYUN 1C DEB",
        "group": "fengyun-1c-debris",
        "lat": -6.499871046056831,
        "lon": -71.5421073122817,
        "alt_km": 865.558584953751,
        "timestamp": "2025-12-16T17:51:11.210178+00:00",
        "meta_object_name": "FENGYUN 1C DEB",
        "meta_object_id": "1999-025ATU",
        "meta_epoch": "2025-12-15T21:14:08.638944",
        "meta_mean_motion": 14.17124223,
        "meta_eccentricity": 0.00383913,
        "meta_inclination": 99.0181,
        "meta_ra_of_asc_node": 108.6237,
        "meta_arg_of_pericenter": 354.0521,
        "meta_mean_anomaly": 132.3521,
        "meta_ephemeris_type": 0,
        "meta_classification_type": "U",
        "meta_norad_cat_id": 30758,
        "meta_element_set_no": 999,
        "meta_rev_at_epoch": 96535,
        "meta_bstar": 0.00083419589,
        "meta_mean_motion_dot": 1.647e-05,
        "meta_mean_motion_ddot": 0,
        "tle_line1": "1 30758U 99025ATU 25349.88482221  .00001647  00000+0  83420-3 0  9993",
        "tle_line2": "2 30758  99.0181 108.6237 0038391 354.0521 132.3521 14.17124223965356"
      },
      "geometry": {
        "type": "Point",
        "coordinates": [
          -71.5421073122817,
          -6.499871046056831
        ]
      }
    },
    {
      "type": "Feature",
      "properties": {
        "norad_id": 30759,
        "name": "FENGYUN 1C DEB",
        "group": "fengyun-1c-debris",
        "lat": 62.75373095370975,
        "lon": 80.46223681714136,
        "alt_km": 704.6341243337156,
        "timestamp": "2025-12-16T17:51:11.210190+00:00",
        "meta_object_name": "FENGYUN 1C DEB",
        "meta_object_id": "1999-025ATV",
        "meta_epoch": "2025-12-15T20:40:18.297696",
        "meta_mean_motion": 14.54581014,
        "meta_eccentricity": 0.00090706,
        "meta_inclination": 99.256,
        "meta_ra_of_asc_node": 97.9488,
        "meta_arg_of_pericenter": 157.9437,
        "meta_mean_anomaly": 327.5936,
        "meta_ephemeris_type": 0,
        "meta_classification_type": "U",
        "meta_norad_cat_id": 30759,
        "meta_element_set_no": 999,
        "meta_rev_at_epoch": 97700,
        "meta_bstar": 0.0015593468,
        "meta_mean_motion_dot": 6.61e-05,
        "meta_mean_motion_ddot": 0,
        "tle_line1": "1 30759U 99025ATV 25349.86132289  .00006610  00000+0  15593-2 0  9998",
        "tle_line2": "2 30759  99.2560  97.9488 0009070 157.9437 327.5936 14.54581014977005"
      },
      "geometry": {
        "type": "Point",
        "coordinates": [
          80.46223681714136,
          62.75373095370975
        ]
      }
    }
  ]
}